NORAD_CAT_ID,OBJECT_NAME,OBJECT_TYPE,EPOCH,MEAN_MOTION,ECCENTRICITY,INCLINATION,RA_OF_ASC_NODE,ARG_OF_PERICENTER,MEAN_ANOMALY,BSTAR,MEAN_MOTION_DOT,MEAN_MOTION_DDOT,TLE_LINE0,TLE_LINE1,TLE_LINE2,SEMIMAJOR_AXIS,PERIOD,APOGEE,PERIGEE,DECAYED
53937.0,STARLINK-4765,PAYLOAD,2024-07-07 08:02:20,15.08836212,0.00014,53.2171,154.0479,90.8212,269.294,2.4182e-05,9.7e-07,0.0,0 STARLINK-4765,1 53937U 22119BD  24189.33495965  .00000097  00000-0  24182-4 0  9997,2 53937  53.2171 154.0479 0001400  90.8212 269.2940 15.08836212 99540,6917.892,95.438,540.725,538.788,0.0
53937.0,STARLINK-4765,PAYLOAD,2024-07-08 14:14:40,15.08838999,0.0001399,53.2171,148.3982,90.9945,269.1207,4.9847e-05,5.05e-06,0.0,0 STARLINK-4765,1 53937U 22119BD  24190.59351984  .00000505  00000-0  49847-4 0  9998,2 53937  53.2171 148.3982 0001399  90.9945 269.1207 15.08838999100155,6917.883,95.438,540.716,538.781,0.0
53937.0,STARLINK-4765,PAYLOAD,2024-07-09 14:05:27,15.08841398,0.0001422,53.2171,143.9372,82.7259,277.3895,6.7566e-05,7.88e-06,0.0,0 STARLINK-4765,1 53937U 22119BD  24191.58711944  .00000788  00000-0  67566-4 0  9995,2 53937  53.2171 143.9372 0001422  82.7259 277.3895 15.08841398100301,6917.876,95.437,540.725,538.757,0.0
53937.0,STARLINK-4765,PAYLOAD,2024-07-10 04:23:55,15.08837368,0.0001463,53.2173,141.2617,89.1059,271.0101,1.3175e-05,-7.8e-07,0.0,0 STARLINK-4765,1 53937U 22119BD  24192.18328468 -.00000078  00000-0  13175-4 0  9997,2 53937  53.2173 141.2617 0001463  89.1059 271.0101 15.08837368 99973,6917.888,95.438,540.766,538.741,0.0
53937.0,STARLINK-4765,PAYLOAD,2024-07-10 13:56:14,15.08841113,0.0001417,53.217,139.4775,86.4349,273.6805,2.921e-05,1.77e-06,0.0,0 STARLINK-4765,1 53937U 22119BD  24192.58072186  .00000177  00000-0  29210-4 0  9990,2 53937  53.2170 139.4775 0001417  86.4349 273.6805 15.08841113100453,6917.877,95.437,540.722,538.762,0.0
53937.0,STARLINK-4765,PAYLOAD,2024-07-10 20:17:47,15.08834217,0.0001503,53.2169,138.2891,86.9003,273.2161,0.00010141,1.326e-05,0.0,0 STARLINK-4765,1 53937U 22119BD  24192.84568413  .00001326  00000-0  10141-3 0  9991,2 53937  53.2169 138.2891 0001503  86.9003 273.2161 15.08834217100497,6917.898,95.438,540.803,538.723,0.0
53937.0,STARLINK-4765,PAYLOAD,2024-07-11 05:50:05,15.08841547,0.0001468,53.2174,136.503,92.3777,267.7383,6.4284e-05,7.35e-06,0.0,0 STARLINK-4765,1 53937U 22119BD  24193.24312035  .00000735  00000-0  64284-4 0  9994,2 53937  53.2174 136.5030 0001468  92.3777 267.7383 15.08841547100553,6917.876,95.437,540.756,538.725,0.0
53937.0,STARLINK-4765,PAYLOAD,2024-07-12 02:30:06,15.0883385,0.0001432,53.2171,132.6366,94.6365,265.4791,0.00013892,1.923e-05,0.0,0 STARLINK-4765,1 53937U 22119BD  24194.10424302  .00001923  00000-0  13892-3 0  9999,2 53937  53.2171 132.6366 0001432  94.6365 265.4791 15.08833850100262,6917.899,95.438,540.755,538.774,0.0
53937.0,STARLINK-4765,PAYLOAD,2024-07-12 05:40:52,15.08839798,0.0001452,53.2174,132.0416,98.0676,262.0481,5.0325e-05,5.13e-06,0.0,0 STARLINK-4765,1 53937U 22119BD  24194.23672135  .00000513  00000-0  50325-4 0  9999,2 53937  53.2174 132.0416 0001452  98.0676 262.0481 15.08839798100705,6917.881,95.438,540.75,538.742,0.0
53937.0,STARLINK-4765,PAYLOAD,2024-07-13 02:20:52,15.08848823,0.0001402,53.2171,128.1759,100.1533,259.9618,9.2537e-05,1.185e-05,0.0,0 STARLINK-4765,1 53937U 22119BD  24195.09783212  .00001185  00000-0  92537-4 0  9990,2 53937  53.2171 128.1759 0001402 100.1533 259.9618 15.08848823100414,6917.853,95.437,540.688,538.749,0.0
53937.0,STARLINK-4765,PAYLOAD,2024-07-13 19:50:07,15.08839409,0.0001448,53.2173,124.9052,100.7783,259.3372,2.8088e-05,1.59e-06,0.0,0 STARLINK-4765,1 53937U 22119BD  24195.82647875  .00000159  00000-0  28088-4 0  9995,2 53937  53.2173 124.9052 0001448 100.7783 259.3372 15.08839409100522,6917.882,95.438,540.749,538.745,0.0
53937.0,STARLINK-4765,PAYLOAD,2024-07-13 23:00:54,15.0883292,0.000142,53.2173,124.31,100.6986,259.4166,-2.9209e-05,-7.53e-06,0.0,0 STARLINK-4765,1 53937U 22119BD  24195.95896457 -.00000753  00000-0 -29209-4 0  9999,2 53937  53.2173 124.3100 0001420 100.6986 259.4166 15.08832920100965,6917.902,95.438,540.749,538.785,0.0
53937.0,STARLINK-4765,PAYLOAD,2024-07-14 11:43:59,15.08837801,0.0001385,53.2179,121.9346,95.9115,264.2035,-9.0858e-06,-4.33e-06,0.0,0 STARLINK-4765,1 53937U 22119BD  24196.48888297 -.00000433  00000-0 -90858-5 0  9995,2 53937  53.2179 121.9346 0001385  95.9115 264.2035 15.08837801101048,6917.887,95.438,540.71,538.794,0.0
53937.0,STARLINK-4765,PAYLOAD,2024-07-14 22:51:41,15.08837171,0.0001444,53.2192,119.8567,105.8252,254.29,-8.6312e-05,-1.661e-05,0.0,0 STARLINK-4765,1 53937U 22119BD  24196.95256682 -.00001661  00000-0 -86312-4 0  9997,2 53937  53.2192 119.8567 0001444 105.8252 254.2900 15.08837171101111,6917.889,95.438,540.753,538.755,0.0
53937.0,STARLINK-4765,PAYLOAD,2024-07-15 03:37:50,15.08842921,0.0001275,53.2175,118.9589,95.4327,264.681,-3.0172e-05,-7.68e-06,0.0,0 STARLINK-4765,1 53937U 22119BD  24197.15128192 -.00000768  00000-0 -30172-4 0  9994,2 53937  53.2175 118.9589 0001275  95.4327 264.6810 15.08842921100725,6917.871,95.437,540.618,538.854,0.0
53937.0,STARLINK-4765,PAYLOAD,2024-07-15 11:34:45,15.08849457,0.0001253,53.2172,117.4709,86.5522,273.5613,2.9519e-05,1.82e-06,0.0,0 STARLINK-4765,1 53937U 22119BD  24197.48247454  .00000182  00000-0  29519-4 0  9994,2 53937  53.2172 117.4709 0001253  86.5522 273.5613 15.08849457100770,6917.851,95.437,540.583,538.85,0.0
53937.0,STARLINK-4765,PAYLOAD,2024-07-15 21:07:06,15.08819811,0.0001311,53.2174,115.6872,83.1104,277.0037,2.2469e-05,7e-07,0.0,0 STARLINK-4765,1 53937U 22119BD  24197.87993540  .00000070  00000-0  22469-4 0  9994,2 53937  53.2174 115.6872 0001311  83.1104 277.0037 15.08819811100834,6917.942,95.439,540.714,538.9,0.0
53937.0,STARLINK-4765,PAYLOAD,2024-07-15 22:42:29,15.08822902,0.0001331,53.2182,115.3924,92.7928,267.3216,4.2323e-05,3.85e-06,0.0,0 STARLINK-4765,1 53937U 22119BD  24197.94617355  .00000385  00000-0  42323-4 0  9999,2 53937  53.2182 115.3924 0001331  92.7928 267.3216 15.08822902101264,6917.933,95.439,540.718,538.877,0.0
53937.0,STARLINK-4765,PAYLOAD,2024-07-16 05:04:01,15.08833695,0.0001353,53.2173,114.1993,88.4116,271.7031,0.00011878,1.603e-05,0.0,0 STARLINK-4765,1 53937U 22119BD  24198.21112786  .00001603  00000-0  11878-3 0  9992,2 53937  53.2173 114.1993 0001353  88.4116 271.7031 15.08833695100884,6917.9,95.438,540.701,538.829,0.0
53937.0,STARLINK-4765,PAYLOAD,2024-07-16 22:33:15,15.08837459,0.0001274,53.2174,110.928,80.4992,279.6144,0.00015848,2.235e-05,0.0,0 STARLINK-4765,1 53937U 22119BD  24198.93976446  .00002235  00000-0  15848-3 0  9995,2 53937  53.2174 110.9280 0001274  80.4992 279.6144 15.08837459101418,6917.888,95.438,540.634,538.872,0.0
53937.0,STARLINK-4765,PAYLOAD,2024-07-17 03:19:24,15.08849107,0.0001217,53.2173,110.0376,88.4812,271.6319,0.00012595,1.718e-05,0.0,0 STARLINK-4765,1 53937U 22119BD  24199.13847856  .00001718  00000-0  12595-3 0  9991,2 53937  53.2173 110.0376 0001217  88.4812 271.6319 15.08849107101026,6917.853,95.437,540.559,538.876,0.0
53937.0,STARLINK-4765,PAYLOAD,2024-07-17 11:16:19,15.08854987,0.0001545,53.2186,108.5541,92.4019,267.715,0.00015451,2.173e-05,0.0,0 STARLINK-4765,1 53937U 22119BD  24199.46967550  .00002173  00000-0  15451-3 0  9991,2 53937  53.2186 108.5541 0001545  92.4019 267.7150 15.08854987101496,6917.835,95.437,540.768,538.631,0.0
53937.0,STARLINK-4765,PAYLOAD,2024-07-17 22:24:04,15.08822067,0.0001623,53.2192,106.4659,91.9902,268.1276,3.3754e-05,2.49e-06,0.0,0 STARLINK-4765,1 53937U 22119BD  24199.93338112  .00000249  00000-0  33754-4 0  9998,2 53937  53.2192 106.4659 0001623  91.9902 268.1276 15.08822067101568,6917.935,95.439,540.923,538.677,0.0
53937.0,STARLINK-4765,PAYLOAD,2024-07-18 03:10:12,15.0884367,0.0001131,53.2178,105.5792,102.0805,258.0314,6.6207e-05,7.66e-06,0.0,0 STARLINK-4765,1 53937U 22119BD  24200.13208697  .00000766  00000-0  66207-4 0  9990,2 53937  53.2178 105.5792 0001131 102.0805 258.0314 15.08843670101171,6917.869,95.437,540.517,538.952,0.0
53937.0,STARLINK-4765,PAYLOAD,2024-07-18 22:14:50,15.08837907,0.0001298,53.2171,102.0062,108.1706,251.9428,9.5857e-05,1.238e-05,0.0,0 STARLINK-4765,1 53937U 22119BD  24200.92697200  .00001238  00000-0  95857-4 0  9997,2 53937  53.2171 102.0062 0001298 108.1706 251.9428 15.08837907101711,6917.887,95.438,540.65,538.854,0.0
53937.0,STARLINK-4765,PAYLOAD,2024-07-19 03:00:59,15.08843836,0.0001287,53.2176,101.1123,104.5787,255.5348,1.1436e-05,-1.06e-06,0.0,0 STARLINK-4765,1 53937U 22119BD  24201.12569030 -.00000106  00000-0  11436-4 0  9994,2 53937  53.2176 101.1123 0001287 104.5787 255.5348 15.08843836101327,6917.869,95.437,540.624,538.843,0.0
53937.0,STARLINK-4765,PAYLOAD,2024-07-19 22:05:38,15.08825464,0.0001266,53.2171,97.5445,105.6877,254.4255,0.0004309,6.574e-05,0.0,0 STARLINK-4765,1 53937U 22119BD  24201.92058346  .00006574  00000-0  43090-3 0  9999,2 53937  53.2171  97.5445 0001266 105.6877 254.4255 15.08825464101867,6917.925,95.438,540.666,538.914,0.0
53937.0,STARLINK-4765,PAYLOAD,2024-07-19 23:41:01,15.08825433,0.0001346,53.2171,97.2477,104.9534,255.1607,0.00043843,6.694e-05,0.0,0 STARLINK-4765,1 53937U 22119BD  24201.98682448  .00006694  00000-0  43843-3 0  9990,2 53937  53.2171  97.2477 0001346 104.9534 255.1607 15.08825433101450,6917.925,95.438,540.721,538.859,0.0
53937.0,STARLINK-4765,PAYLOAD,2024-07-20 20:21:01,15.08838876,0.000118,53.2166,93.3819,97.8929,262.2197,0.0001178,1.587e-05,0.0,0 STARLINK-4765,1 53937U 22119BD  24202.84793828  .00001587  00000-0  11780-3 0  9992,2 53937  53.2166  93.3819 0001180  97.8929 262.2197 15.08838876101587,6917.884,95.438,540.565,538.933,0.0
53937.0,STARLINK-4765,PAYLOAD,2024-07-20 21:56:25,15.08837209,0.0001055,53.2163,93.0839,96.3909,263.7203,8.5788e-05,1.078e-05,0.0,0 STARLINK-4765,1 53937U 22119BD  24202.91417880  .00001078  00000-0  85788-4 0  9996,2 53937  53.2163  93.0839 0001055  96.3909 263.7203 15.08837209102018,6917.889,95.438,540.484,539.024,0.0
